School,Team_Name,City,State,Latitude,Longitude,Primary_Color_Hex,Secondary_Color_Hex
Boston College,Boston College Eagles,Chestnut Hill,Massachusetts,42.3355,-71.1685,#800000,#FFC200
Clemson,Clemson Tigers,Clemson,South Carolina,34.6767,-82.8360,#F56600,#522D80
Duke,Duke Blue Devils,Durham,North Carolina,36.0014,-78.9382,#001A57,#C8C8C8
Florida State,Florida State Seminoles,Tallahassee,Florida,30.4427,-84.2963,#782F40,#CEB888
Georgia Tech,Georgia Tech Yellow Jackets,Atlanta,Georgia,33.7756,-84.3963,#B3A369,#041E42
Louisville,Louisville Cardinals,Louisville,Kentucky,38.2106,-85.7593,#AD0000,#000000
Miami,Miami Hurricanes,Coral Gables,Florida,25.7197,-80.2794,#005030,#F08C00
North Carolina,North Carolina Tar Heels,Chapel Hill,North Carolina,35.9049,-79.0469,#7BAFD4,#FFFFFF
NC State,NC State Wolfpack,Raleigh,North Carolina,35.7866,-78.6820,#CC0000,#000000
Pittsburgh,Pittsburgh Panthers,Pittsburgh,Pennsylvania,40.4445,-79.9608,#0032A8,#FFB81C
SMU,SMU Mustangs,Dallas,Texas,32.8403,-96.7848,#C40D36,#0033A0
Stanford,Stanford Cardinal,Stanford,California,37.4275,-122.1697,#8C1523,#FFFFFF
Syracuse,Syracuse Orange,Syracuse,New York,43.0391,-76.1352,#F76900,#000000
Virginia,Virginia Cavaliers,Charlottesville,Virginia,38.0336,-78.5080,#232D4B,#F84C1E
Virginia Tech,Virginia Tech Hokies,Blacksburg,Virginia,37.2284,-80.4234,#63002C,#C5C6C8
Wake Forest,Wake Forest Demon Deacons,Winston-Salem,North Carolina,36.1349,-80.2742,#2E2E2E,#A3885F
Army,Army Black Knights,West Point,New York,41.3915,-73.9626,#000000,#D4C7A3
Charlotte,Charlotte 49ers,Charlotte,North Carolina,35.3073,-80.7342,#00703C,#B5B5B5
East Carolina,East Carolina Pirates,Greenville,North Carolina,35.6087,-77.3663,#592A8C,#FFFFFF
Florida Atlantic,Florida Atlantic Owls,Boca Raton,Florida,26.3720,-80.1009,#002B5C,#C6C6C6
Memphis,Memphis Tigers,Memphis,Tennessee,35.1184,-89.9375,#003087,#8693AB
Navy,Navy Midshipmen,Annapolis,Maryland,38.9826,-76.4951,#002060,#C1C6C8
North Texas,North Texas Mean Green,Denton,Texas,33.2148,-97.1331,#00853E,#FFFFFF
Rice,Rice Owls,Houston,Texas,29.7174,-95.4018,#002450,#C1C6C8
South Florida,South Florida Bulls,Tampa,Florida,28.0587,-82.4139,#006747,#C3C3C3
Temple,Temple Owls,Philadelphia,Pennsylvania,39.9811,-75.1556,#9D2235,#C6C6C6
Tulane,Tulane Green Wave,New Orleans,Louisiana,29.9390,-90.1216,#00674D,#8D8D8D
Tulsa,Tulsa Golden Hurricane,Tulsa,Oklahoma,36.1520,-95.9379,#002D62,#C4B49F
UAB,UAB Blazers,Birmingham,Alabama,33.5022,-86.8094,#003629,#C8C8C8
UTSA,UTSA Roadrunners,San Antonio,Texas,29.5847,-98.6205,#0C2340,#E18A00
Arizona,Arizona Wildcats,Tucson,Arizona,32.2319,-110.9501,#003366,#CC0033
Arizona State,Arizona State Sun Devils,Tempe,Arizona,33.4255,-111.9400,#8C1D40,#FFC627
Baylor,Baylor Bears,Waco,Texas,31.5479,-97.1131,#154734,#FFB81C
BYU,BYU Cougars,Provo,Utah,40.2518,-111.6493,#001E4D,#C1C6C8
Cincinnati,Cincinnati Bearcats,Cincinnati,Ohio,39.1329,-84.5150,#E00122,#000000
Colorado,Colorado Buffaloes,Boulder,Colorado,40.0150,-105.2705,#CFB87C,#000000
Houston,Houston Cougars,Houston,Texas,29.7195,-95.3422,#CC0033,#000000
Iowa State,Iowa State Cyclones,Ames,Iowa,42.0266,-93.6465,#C8102E,#F1BE48
Kansas,Kansas Jayhawks,Lawrence,Kansas,38.9543,-95.2558,#0051BA,#E8000D
Kansas State,Kansas State Wildcats,Manhattan,Kansas,39.1956,-96.5847,#512888,#C8C8C8
Oklahoma State,Oklahoma State Cowboys,Stillwater,Oklahoma,36.1156,-97.0683,#FF6500,#000000
TCU,TCU Horned Frogs,Fort Worth,Texas,32.7073,-97.3656,#4D1979,#C1C6C8
Texas Tech,Texas Tech Red Raiders,Lubbock,Texas,33.5779,-101.8552,#CC0000,#000000
UCF,UCF Knights,Orlando,Florida,28.6024,-81.2001,#BA9B37,#000000
Utah,Utah Utes,Salt Lake City,Utah,40.7649,-111.8421,#CC0000,#000000
West Virginia,West Virginia Mountaineers,Morgantown,West Virginia,39.6348,-79.9514,#EAAA00,#002855
Illinois,Illinois Fighting Illini,Champaign,Illinois,40.1020,-88.2272,#E84A27,#13294B
Indiana,Indiana Hoosiers,Bloomington,Indiana,39.1670,-86.5197,#990000,#C1C6C8
Iowa,Iowa Hawkeyes,Iowa City,Iowa,41.6611,-91.5302,#FFCD00,#000000
Maryland,Maryland Terrapins,College Park,Maryland,38.9869,-76.9426,#E03A3E,#000000
Michigan,Michigan Wolverines,Ann Arbor,Michigan,42.2681,-83.7312,#00274C,#FFCB05
Michigan State,Michigan State Spartans,East Lansing,Michigan,42.7335,-84.4824,#18453B,#FFFFFF
Minnesota,Minnesota Golden Gophers,Minneapolis,Minnesota,44.9741,-93.2277,#7A0019,#FFCC33
Nebraska,Nebraska Cornhuskers,Lincoln,Nebraska,40.8202,-96.7005,#E41C38,#C1C6C8
Northwestern,Northwestern Wildcats,Evanston,Illinois,42.0564,-87.6755,#4E2A84,#C1C6C8
Ohio State,Ohio State Buckeyes,Columbus,Ohio,40.0067,-83.0305,#FF0000,#666666
Oregon,Oregon Ducks,Eugene,Oregon,44.0446,-123.0759,#FAE100,#154734
Penn State,Penn State Nittany Lions,University Park,Pennsylvania,40.7982,-77.8599,#041E42,#C1C6C8
Purdue,Purdue Boilermakers,West Lafayette,Indiana,40.4237,-87.0078,#B88D04,#000000
Rutgers,Rutgers Scarlet Knights,New Brunswick,New Jersey,40.5008,-74.4474,#CC0033,#000000
UCLA,UCLA Bruins,Los Angeles,California,34.0689,-118.4452,#2D68C4,#F2A900
USC,USC Trojans,Los Angeles,California,34.0224,-118.2851,#990000,#FFCC00
Washington,Washington Huskies,Seattle,Washington,47.6553,-122.3035,#4B2E83,#B7A57A
Wisconsin,Wisconsin Badgers,Madison,Wisconsin,43.0731,-89.4012,#C5050C,#FFFFFF
Delaware,Delaware Fightin' Blue Hens,Newark,Delaware,39.6837,-75.7497,#005696,#FFD200
FIU,FIU Panthers,Miami,Florida,25.7563,-80.3756,#002B5C,#C1C6C8
Jacksonville State,Jacksonville State Gamecocks,Jacksonville,Alabama,33.8204,-85.7702,#85002F,#000000
Kennesaw State,Kennesaw State Owls,Kennesaw,Georgia,34.0234,-84.5816,#000000,#FFC200
Liberty,Liberty Flames,Lynchburg,Virginia,37.3518,-79.1817,#00205B,#B82136
Louisiana Tech,Louisiana Tech Bulldogs,Ruston,Louisiana,32.5251,-92.6379,#002B5C,#C1C6C8
Middle Tennessee,Middle Tennessee Blue Raiders,Murfreesboro,Tennessee,35.8517,-86.3694,#0033A0,#C1C6C8
Missouri State,Missouri State Bears,Springfield,Missouri,37.1940,-93.2923,#9A0000,#000000
New Mexico State,New Mexico State Aggies,Las Cruces,New Mexico,32.2844,-106.7517,#8C1D40,#000000
Sam Houston,Sam Houston Bearkats,Huntsville,Texas,30.7146,-95.5521,#C5002F,#000000
UTEP,UTEP Miners,El Paso,Texas,31.7619,-106.5057,#FF8200,#000000
Western Kentucky,Western Kentucky Hilltoppers,Bowling Green,Kentucky,36.9820,-86.4472,#C7002D,#000000
Connecticut,Connecticut Huskies,Storrs,Connecticut,41.8077,-72.2540,#000E2F,#C1C6C8
Notre Dame,Notre Dame Fighting Irish,Notre Dame,Indiana,41.7001,-86.2379,#0C2340,#A77E2F
Akron,Akron Zips,Akron,Ohio,41.0732,-81.5179,#002D62,#FDB913
Ball State,Ball State Cardinals,Muncie,Indiana,40.2006,-85.4106,#CC0033,#000000
Bowling Green,Bowling Green Falcons,Bowling Green,Ohio,41.3748,-83.6571,#4F2C1D,#FF9E00
Buffalo,Buffalo Bulls,Buffalo,New York,43.0002,-78.7890,#0032A0,#C6C6C6
Central Michigan,Central Michigan Chippewas,Mount Pleasant,Michigan,43.5776,-84.7732,#8C002B,#C1C6C8
Eastern Michigan,Eastern Michigan Eagles,Ypsilanti,Michigan,42.2459,-83.6235,#006633,#C1C6C8
Kent State,Kent State Golden Flashes,Kent,Ohio,41.1498,-81.3436,#002D62,#FDB913
Miami (OH),Miami RedHawks,Oxford,Ohio,39.5109,-84.7328,#CC0033,#000000
Northern Illinois,Northern Illinois Huskies,DeKalb,Illinois,41.9306,-88.7540,#C40D36,#000000
Ohio,Ohio Bobcats,Athens,Ohio,39.3292,-82.1013,#004A36,#FFC72C
Toledo,Toledo Rockets,Toledo,Ohio,41.6565,-83.6152,#0033A0,#FFC200
UMass,UMass Minutemen,Amherst,Massachusetts,42.3868,-72.5301,#800000,#000000
Western Michigan,Western Michigan Broncos,Kalamazoo,Michigan,42.2834,-85.6051,#654321,#FFFFFF
Air Force,Air Force Falcons,Colorado Springs,Colorado,38.9967,-104.8618,#00205B,#C1C6C8
Boise State,Boise State Broncos,Boise,Idaho,43.6028,-116.2146,#0033A0,#FF6600
Colorado State,Colorado State Rams,Fort Collins,Colorado,40.5508,-105.0178,#0033A0,#C8C8C8
Fresno State,Fresno State Bulldogs,Fresno,California,36.8122,-119.7462,#CC0033,#000000
Hawaii,Hawaii Rainbow Warriors,Honolulu,Hawaii,21.2969,-157.8150,#00643B,#C1C6C8
Nevada,Nevada Wolf Pack,Reno,Nevada,39.5447,-119.8138,#002D62,#C1C6C8
New Mexico,New Mexico Lobos,Albuquerque,New Mexico,35.0834,-106.6195,#CC0033,#000000
San Diego State,San Diego State Aztecs,San Diego,California,32.7753,-117.0709,#9D2235,#000000
San Jose State,San Jose State Spartans,San Jose,California,37.3361,-121.8811,#0055A2,#C1C6C8
UNLV,UNLV Rebels,Las Vegas,Nevada,36.1098,-115.1398,#CC0033,#000000
Utah State,Utah State Aggies,Logan,Utah,41.7450,-111.8101,#002D62,#8C8C8C
Wyoming,Wyoming Cowboys,Laramie,Wyoming,41.3114,-105.5911,#4F2C1D,#FFC200
Oregon State,Oregon State Beavers,Corvallis,Oregon,44.5637,-123.2794,#D73F09,#000000
Washington State,Washington State Cougars,Pullman,Washington,46.7298,-117.1817,#981E32,#000000
Alabama,Alabama Crimson Tide,Tuscaloosa,Alabama,33.2098,-87.5692,#900000,#C1C6C8
Arkansas,Arkansas Razorbacks,Fayetteville,Arkansas,36.0625,-94.1574,#9D2235,#C1C6C8
Auburn,Auburn Tigers,Auburn,Alabama,32.5990,-85.4886,#0C2340,#E87F00
Florida,Florida Gators,Gainesville,Florida,29.6436,-82.3549,#0021A5,#FA4616
Georgia,Georgia Bulldogs,Athens,Georgia,33.9480,-83.3773,#BA0C00,#000000
Kentucky,Kentucky Wildcats,Lexington,Kentucky,38.0307,-84.5041,#0033A0,#C1C6C8
LSU,LSU Tigers,Baton Rouge,Louisiana,30.4118,-91.1800,#461D7C,#FDD023
Mississippi State,Mississippi State Bulldogs,Starkville,Mississippi,33.4735,-88.7990,#660000,#000000
Missouri,Missouri Tigers,Columbia,Missouri,38.9358,-92.3288,#000000,#F1B82D
Oklahoma,Oklahoma Sooners,Norman,Oklahoma,35.2059,-97.4426,#841617,#F0CB41
Ole Miss,Ole Miss Rebels,Oxford,Mississippi,34.3665,-89.5348,#CC0033,#000000
South Carolina,South Carolina Gamecocks,Columbia,South Carolina,34.0195,-81.0348,#73000A,#000000
Tennessee,Tennessee Volunteers,Knoxville,Tennessee,35.9544,-83.9295,#FF8200,#000000
Texas,Texas Longhorns,Austin,Texas,30.2849,-97.7341,#BF5700,#000000
Texas A&M,Texas A&M Aggies,College Station,Texas,30.6280,-96.3344,#500000,#C1C6C8
Vanderbilt,Vanderbilt Commodores,Nashville,Tennessee,36.1447,-86.8027,#000000,#8D7359
Appalachian State,Appalachian State Mountaineers,Boone,North Carolina,36.2168,-81.6746,#000000,#FFCD00
Arkansas State,Arkansas State Red Wolves,Jonesboro,Arkansas,35.8423,-90.6843,#E1002A,#000000
Coastal Carolina,Coastal Carolina Chanticleers,Conway,South Carolina,33.7948,-79.0391,#006F6F,#FFCC33
Georgia Southern,Georgia Southern Eagles,Statesboro,Georgia,32.4279,-81.7831,#002D62,#C1C6C8
Georgia State,Georgia State Panthers,Atlanta,Georgia,33.7530,-84.3849,#003057,#C1C6C8
James Madison,James Madison Dukes,Harrisonburg,Virginia,38.4354,-78.8698,#450084,#FFCC00
Louisiana,Louisiana Ragin' Cajuns,Lafayette,Louisiana,30.2141,-92.0198,#CC0033,#000000
Marshall,Marshall Thundering Herd,Huntington,West Virginia,38.4226,-82.4215,#0032A0,#C1C6C8
Old Dominion,Old Dominion Monarchs,Norfolk,Virginia,36.8851,-76.3058,#004B8D,#C1C6C8
South Alabama,South Alabama Jaguars,Mobile,Alabama,30.6944,-88.1867,#0032A0,#C1C6C8
Southern Miss,Southern Miss Golden Eagles,Hattiesburg,Mississippi,31.3271,-89.3462,#000000,#FFC200
Texas State,Texas State Bobcats,San Marcos,Texas,29.8833,-97.9414,#500000,#000000
Troy,Troy Trojans,Troy,Alabama,31.8018,-85.9699,#CC0033,#000000
ULM,ULM Warhawks,Monroe,Louisiana,32.5252,-92.0891,#8B0000,#000000